HYPERFIELD-1A           
1 60562U 24149CY  26068.76488211  .00008569  00000+0  30052-3 0  9998
2 60562  97.3842 149.5066 0003865 313.7844  46.3076 15.29681349 86836
STARLINK-32332          
1 62490U 25003D   26067.99282164  .00034190  00000+0  12452-2 0  9995
2 62490  43.0049 293.0230 0002782 264.0944  95.9590 15.27604214 66540
